[{"OBJECT_NAME":"DAMPE","OBJECT_ID":"2015-078A","EPOCH":"2026-03-09T23:55:00.527232","MEAN_MOTION":15.30502084,"ECCENTRICITY":0.00138005,"INCLINATION":97.4588,"RA_OF_ASC_NODE":73.9866,"ARG_OF_PERICENTER":70.6942,"MEAN_ANOMALY":289.579,"EPHEMERIS_TYPE":0,"CLASSIFICATION_TYPE":"U","NORAD_CAT_ID":41173,"ELEMENT_SET_NO":999,"REV_AT_EPOCH":56937,"BSTAR":9.1158173e-5,"MEAN_MOTION_DOT":2.617e-5,"MEAN_MOTION_DDOT":0},{"OBJECT_NAME":"STARLINK-35180","OBJECT_ID":"2025-195E","EPOCH":"2026-03-09T21:29:03.111360","MEAN_MOTION":15.30204881,"ECCENTRICITY":8.82e-5,"INCLINATION":53.158,"RA_OF_ASC_NODE":257.3378,"ARG_OF_PERICENTER":119.8503,"MEAN_ANOMALY":240.2586,"EPHEMERIS_TYPE":0,"CLASSIFICATION_TYPE":"U","NORAD_CAT_ID":65462,"ELEMENT_SET_NO":999,"REV_AT_EPOCH":3002,"BSTAR":0.00091911033,"MEAN_MOTION_DOT":0.00026965,"MEAN_MOTION_DDOT":0}]
